NORAD_CAT_ID,OBJECT_NAME,OBJECT_TYPE,EPOCH,MEAN_MOTION,ECCENTRICITY,INCLINATION,RA_OF_ASC_NODE,ARG_OF_PERICENTER,MEAN_ANOMALY,BSTAR,MEAN_MOTION_DOT,MEAN_MOTION_DDOT,TLE_LINE0,TLE_LINE1,TLE_LINE2,SEMIMAJOR_AXIS,PERIOD,APOGEE,PERIGEE,DECAYED
53023.0,STARLINK-4284,PAYLOAD,2024-07-02 14:55:23,15.08836873,7.59e-05,53.2175,325.2627,100.0068,260.1009,-5.1175e-06,-3.69e-06,0.0,0 STARLINK-4284,1 53023U 22076AP  24184.62180279 -.00000369  00000-0 -51175-5 0  9998,2 53023  53.2175 325.2627 0000759 100.0068 260.1009 15.08836873110134,6917.89,95.438,540.28,539.23,0.0
53023.0,STARLINK-4284,PAYLOAD,2024-07-02 16:30:46,15.08840198,7.5e-05,53.217,324.9655,82.4701,277.6377,1.9347e-05,2e-07,0.0,0 STARLINK-4284,1 53023U 22076AP  24184.68804211  .00000020  00000-0  19347-4 0  9999,2 53023  53.2170 324.9655 0000750  82.4701 277.6377 15.08840198110141,6917.88,95.438,540.264,539.226,0.0
53023.0,STARLINK-4284,PAYLOAD,2024-07-03 16:21:34,15.08837456,7.01e-05,53.2164,320.5037,91.671,268.4362,4.8602e-05,4.86e-06,0.0,0 STARLINK-4284,1 53023U 22076AP  24185.68164517  .00000486  00000-0  48602-4 0  9990,2 53023  53.2164 320.5037 0000701  91.6710 268.4362 15.08837456110761,6917.888,95.438,540.238,539.268,0.0
53023.0,STARLINK-4284,PAYLOAD,2024-07-04 14:36:58,15.08840686,7.93e-05,53.2169,316.3412,89.5052,270.6031,0.00015224,2.136e-05,0.0,0 STARLINK-4284,1 53023U 22076AP  24186.60900553  .00002136  00000-0  15224-3 0  9998,2 53023  53.2169 316.3412 0000793  89.5052 270.6031 15.08840686110433,6917.878,95.438,540.292,539.195,0.0
53023.0,STARLINK-4284,PAYLOAD,2024-07-05 01:44:40,15.08838386,8.04e-05,53.2169,314.2601,95.2122,264.8962,0.00031139,4.671e-05,0.0,0 STARLINK-4284,1 53023U 22076AP  24187.07268775  .00004671  00000-0  31139-3 0  9992,2 53023  53.2169 314.2601 0000804  95.2122 264.8962 15.08838386110976,6917.885,95.438,540.307,539.194,0.0
53023.0,STARLINK-4284,PAYLOAD,2024-07-05 12:52:22,15.08825823,8.44e-05,53.2175,312.1788,93.593,266.5159,0.00035966,5.439e-05,0.0,0 STARLINK-4284,1 53023U 22076AP  24187.53637496  .00005439  00000-0  35966-3 0  9998,2 53023  53.2175 312.1788 0000844  93.5930 266.5159 15.08825823111046,6917.924,95.438,540.373,539.205,0.0
53023.0,STARLINK-4284,PAYLOAD,2024-07-05 14:27:43,15.08867553,7.61e-05,53.2174,311.8813,84.2731,275.8348,-0.00083345,-0.00013537,0.0,0 STARLINK-4284,1 53023U 22076AP  24187.60259142 -.00013537  00000-0 -83345-3 0  9998,2 53023  53.2174 311.8813 0000761  84.2731 275.8348 15.08867553110581,6917.796,95.436,540.188,539.135,0.0
53023.0,STARLINK-4284,PAYLOAD,2024-07-05 16:03:08,15.08842283,8.32e-05,53.2176,311.5813,93.5919,266.5168,8.9906e-05,1.144e-05,0.0,0 STARLINK-4284,1 53023U 22076AP  24187.66884562  .00001144  00000-0  89906-4 0  9993,2 53023  53.2176 311.5813 0000832  93.5919 266.5168 15.08842283111064,6917.873,95.437,540.314,539.163,0.0
53023.0,STARLINK-4284,PAYLOAD,2024-07-06 12:43:09,15.08835658,9.44e-05,53.2171,307.7184,84.1735,275.9365,-9.9238e-06,-4.46e-06,0.0,0 STARLINK-4284,1 53023U 22076AP  24188.52997090 -.00000446  00000-0 -99238-5 0  9996,2 53023  53.2171 307.7184 0000944  84.1735 275.9365 15.08835658111198,6917.894,95.438,540.412,539.106,0.0
53023.0,STARLINK-4284,PAYLOAD,2024-07-06 14:18:32,15.08839948,9.29e-05,53.2176,307.4202,92.1715,267.9384,1.9984e-05,3e-07,0.0,0 STARLINK-4284,1 53023U 22076AP  24188.59621030  .00000030  00000-0  19984-4 0  9997,2 53023  53.2176 307.4202 0000929  92.1715 267.9384 15.08839948110738,6917.881,95.438,540.388,539.103,0.0
53023.0,STARLINK-4284,PAYLOAD,2024-07-07 14:09:18,15.08850542,9.49e-05,53.2176,302.959,128.7144,231.3933,7.3491e-05,8.82e-06,0.0,0 STARLINK-4284,1 53023U 22076AP  24189.58980208  .00000882  00000-0  73491-4 0  9990,2 53023  53.2176 302.9590 0000949 128.7144 231.3933 15.08850542110886,6917.848,95.437,540.37,539.057,0.0
53023.0,STARLINK-4284,PAYLOAD,2024-07-08 14:00:06,15.08843043,8.16e-05,53.2189,298.4989,84.4993,275.6092,0.0002257,3.306e-05,0.0,0 STARLINK-4284,1 53023U 22076AP  24190.58340390  .00003306  00000-0  22570-3 0  9999,2 53023  53.2189 298.4989 0000816  84.4993 275.6092 15.08843043111509,6917.871,95.437,540.301,539.172,0.0
53023.0,STARLINK-4284,PAYLOAD,2024-07-09 12:15:30,15.08837818,0.0001006,53.2184,294.3354,84.0276,276.0831,4.7023e-05,4.61e-06,0.0,0 STARLINK-4284,1 53023U 22076AP  24191.51076998  .00000461  00000-0  47023-4 0  9993,2 53023  53.2184 294.3354 0001006  84.0276 276.0831 15.08837818111641,6917.887,95.438,540.448,539.056,0.0
53023.0,STARLINK-4284,PAYLOAD,2024-07-10 13:41:40,15.08842945,9.9e-05,53.2178,289.578,74.8208,285.2894,-1.6687e-06,-3.14e-06,0.0,0 STARLINK-4284,1 53023U 22076AP  24192.57060979 -.00000314  00000-0 -16687-5 0  9994,2 53023  53.2178 289.5780 0000990  74.8208 285.2894 15.08842945111802,6917.871,95.437,540.421,539.052,0.0
53023.0,STARLINK-4284,PAYLOAD,2024-07-11 13:32:27,15.0884681,0.0001063,53.2175,285.1187,94.3487,265.7626,0.00018118,2.597e-05,0.0,0 STARLINK-4284,1 53023U 22076AP  24193.56420311  .00002597  00000-0  18118-3 0  9996,2 53023  53.2175 285.1187 0001063  94.3487 265.7626 15.08846810111485,6917.86,95.437,540.46,538.989,0.0
53023.0,STARLINK-4284,PAYLOAD,2024-07-12 05:26:19,15.08839684,9.61e-05,53.2163,282.1441,85.6417,274.4685,7.0925e-05,8.41e-06,0.0,0 STARLINK-4284,1 53023U 22076AP  24194.22661238  .00000841  00000-0  70925-4 0  9990,2 53023  53.2163 282.1441 0000961  85.6417 274.4685 15.08839684112051,6917.881,95.438,540.411,539.082,0.0
53023.0,STARLINK-4284,PAYLOAD,2024-07-12 13:23:14,15.088426,0.000118,53.2174,280.6577,72.44,287.6721,8.2182e-05,1.02e-05,0.0,0 STARLINK-4284,1 53023U 22076AP  24194.55781088  .00001020  00000-0  82182-4 0  9990,2 53023  53.2174 280.6577 0001180  72.4400 287.6721 15.08842600111638,6917.872,95.437,540.554,538.921,0.0
53023.0,STARLINK-4284,PAYLOAD,2024-07-12 14:58:37,15.08846767,0.0001128,53.2175,280.36,80.9716,279.1403,0.00011403,1.528e-05,0.0,0 STARLINK-4284,1 53023U 22076AP  24194.62404692  .00001528  00000-0  11403-3 0  9991,2 53023  53.2175 280.3600 0001128  80.9716 279.1403 15.08846767112114,6917.86,95.437,540.505,538.944,0.0
53023.0,STARLINK-4284,PAYLOAD,2024-07-13 05:17:06,15.08843106,0.0001043,53.2162,277.682,88.5807,271.5305,-3.1323e-05,-7.86e-06,0.0,0 STARLINK-4284,1 53023U 22076AP  24195.22021256 -.00000786  00000-0 -31323-4 0  9990,2 53023  53.2162 277.6820 0001043  88.5807 271.5305 15.08843106112205,6917.871,95.437,540.457,539.014,0.0
53023.0,STARLINK-4284,PAYLOAD,2024-07-13 13:14:01,15.08848862,0.000102,53.2161,276.1953,89.4962,270.6147,2.1994e-05,6.2e-07,0.0,0 STARLINK-4284,1 53023U 22076AP  24195.55140636  .00000062  00000-0  21994-4 0  9998,2 53023  53.2161 276.1953 0001020  89.4962 270.6147 15.08848862111782,6917.853,95.437,540.424,539.013,0.0
53023.0,STARLINK-4284,PAYLOAD,2024-07-14 05:07:53,15.0883707,0.0001184,53.2178,273.221,87.4463,272.6664,-1.9342e-05,-5.96e-06,0.0,0 STARLINK-4284,1 53023U 22076AP  24196.21381818 -.00000596  00000-0 -19342-4 0  9999,2 53023  53.2178 273.2210 0001184  87.4463 272.6664 15.08837070112358,6917.889,95.438,540.573,538.935,0.0
53023.0,STARLINK-4284,PAYLOAD,2024-07-14 11:29:26,15.08840471,0.0001186,53.2176,272.032,86.1616,273.9512,1.7005e-05,-1.7e-07,0.0,0 STARLINK-4284,1 53023U 22076AP  24196.47877527 -.00000017  00000-0  17005-4 0  9995,2 53023  53.2176 272.0320 0001186  86.1616 273.9512 15.08840471111920,6917.879,95.438,540.564,538.923,0.0
53023.0,STARLINK-4284,PAYLOAD,2024-07-14 22:37:07,15.08845062,0.0001199,53.2175,269.9509,85.3782,274.7347,4.1923e-05,3.8e-06,0.0,0 STARLINK-4284,1 53023U 22076AP  24196.94245147  .00000380  00000-0  41923-4 0  9992,2 53023  53.2175 269.9509 0001199  85.3782 274.7347 15.08845062112468,6917.865,95.437,540.559,538.9,0.0
53023.0,STARLINK-4284,PAYLOAD,2024-07-15 14:30:58,15.08852732,0.0001229,53.2158,266.9771,84.2351,275.8781,0.00025463,3.768e-05,0.0,0 STARLINK-4284,1 53023U 22076AP  24197.60484866  .00003768  00000-0  25463-3 0  9992,2 53023  53.2158 266.9771 0001229  84.2351 275.8781 15.08852732112096,6917.841,95.437,540.557,538.856,0.0
53023.0,STARLINK-4284,PAYLOAD,2024-07-16 04:49:27,15.08839216,0.0001265,53.2149,264.2952,92.8784,267.2353,0.00019065,2.748e-05,0.0,0 STARLINK-4284,1 53023U 22076AP  24198.20101611  .00002748  00000-0  19065-3 0  9991,2 53023  53.2149 264.2952 0001265  92.8784 267.2353 15.08839216112657,6917.883,95.438,540.623,538.873,0.0
53023.0,STARLINK-4284,PAYLOAD,2024-07-16 11:11:00,15.08829733,0.0001209,53.216,263.1109,89.125,270.988,-9.1857e-05,-1.749e-05,0.0,0 STARLINK-4284,1 53023U 22076AP  24198.46597958 -.00001749  00000-0 -91857-4 0  9994,2 53023  53.2160 263.1109 0001209  89.1250 270.9880 15.08829733112229,6917.912,95.438,540.613,538.94,0.0
53023.0,STARLINK-4284,PAYLOAD,2024-07-17 11:01:47,15.08844812,0.0001336,53.2155,258.652,77.2318,282.8824,0.0002158,3.149e-05,0.0,0 STARLINK-4284,1 53023U 22076AP  24199.45957725  .00003149  00000-0  21580-3 0  9995,2 53023  53.2155 258.6520 0001336  77.2318 282.8824 15.08844812112846,6917.866,95.437,540.655,538.806,0.0
53023.0,STARLINK-4284,PAYLOAD,2024-07-18 10:52:34,15.08851747,0.0001422,53.2159,254.1941,82.6461,277.4693,0.00045951,7.035e-05,0.0,0 STARLINK-4284,1 53023U 22076AP  24200.45317852  .00007035  00000-0  45951-3 0  9995,2 53023  53.2159 254.1941 0001422  82.6461 277.4693 15.08851747112527,6917.844,95.437,540.693,538.726,0.0
53023.0,STARLINK-4284,PAYLOAD,2024-07-19 09:07:58,15.08841374,0.0001565,53.2162,250.034,96.2012,263.9159,6.0588e-05,6.76e-06,0.0,0 STARLINK-4284,1 53023U 22076AP  24201.38053983  .00000676  00000-0  60588-4 0  9998,2 53023  53.2162 250.0340 0001565  96.2012 263.9159 15.08841374113130,6917.876,95.437,540.824,538.659,0.0
53023.0,STARLINK-4284,PAYLOAD,2024-07-19 20:15:40,15.08843969,0.00016,53.2161,247.9478,76.8778,283.2392,0.00011064,1.473e-05,0.0,0 STARLINK-4284,1 53023U 22076AP  24201.84421918  .00001473  00000-0  11064-3 0  9996,2 53023  53.2161 247.9478 0001600  76.8778 283.2392 15.08843969112730,6917.868,95.437,540.84,538.626,0.0
